{
    "type": "FeatureCollection",
    "features": [
        {
            "type": "Feature",
            "properties": {
                "icao": "HK",
                "name": "Huvudkontoret",
                "offset": [
                    0,
                    0
                ]
            },
            "geometry": {
                "type": "Point",
                "coordinates": [
                    16.1,
                    58.5
                ]
            }
        },
        {
            "type": "Feature",
            "properties": {
                "icao": "GH",
                "name": "Glashuset i Malmö",
                "offset": [
                    0,
                    0
                ]
            },
            "geometry": {
                "type": "Point",
                "coordinates": [
                    13.4,
                    55.6
                ]
            }
        },
        {
            "type": "Feature",
            "properties": {
                "icao": "AIM",
                "name": "AIM Kontoret",
                "offset": [
                    0,
                    0
                ]
            },
            "geometry": {
                "type": "Point",
                "coordinates": [
                    18.9,
                    59.5
                ]
            }
        }
    ]
}